ONEWEB-0319             
1 49105U 21075AG  24152.94877158 -.00000039  00000+0 -13370-3 0  9997
2 49105  87.9161 154.4252 0001450  82.6610 277.4686 13.17650183135339
ONEWEB-0323             
1 49106U 21075AH  24153.51841114 -.00000255  00000+0 -74279-3 0  9990
2 49106  87.8926 139.1252 0001841  84.6735 275.4604 13.12567678137748
ONEWEB-0329             
1 49107U 21075AJ  24153.48824184  .00000079  00000+0  17045-3 0  9995
2 49107  87.9161 154.3220 0001904  84.1135 276.0213 13.17647453136370
ONEWEB-0330             
1 49108U 21075AK  24152.95827051  .00000019  00000+0  16010-4 0  9999
2 49108  87.9160 154.4275 0001975  80.5858 279.5496 13.17647366135352
ONEWEB-0292             
1 49186U 21083A   24153.15711281  .00000086  00000+0  20147-3 0  9993
2 49186  87.8920 108.7531 0001957  83.8584 276.2768 13.13469573134285
ONEWEB-0303             
1 49187U 21083B   24153.21129149  .00000083  00000+0  17729-3 0  9996
2 49187  87.9133 123.9549 0001813  86.4781 273.6559 13.18687583132948
ONEWEB-0306             
1 49188U 21083C   24153.20182928 -.00000061  00000+0 -18830-3 0  9992
2 49188  87.9138 123.9442 0002493  91.6268 268.5149 13.18679829132985
ONEWEB-0307             
1 49189U 21083D   24152.92302521  .00000026  00000+0  35496-4 0  9991
2 49189  87.8921 108.7994 0002357  75.6131 284.5260 13.13469601132968
